[
    {
        "OBJECT_NAME": "SHIJIAN-16 (SJ-16)",
        "OBJECT_ID": "2013-057A",
        "EPOCH": "2026-04-18T20:24:35.709984",
        "MEAN_MOTION": 14.92463598,
        "ECCENTRICITY": 0.0015875,
        "INCLINATION": 74.9697,
        "RA_OF_ASC_NODE": 109.0516,
        "ARG_OF_PERICENTER": 9.194,
        "MEAN_ANOMALY": 350.9535,
        "EPHEMERIS_TYPE": 0,
        "CLASSIFICATION_TYPE": "U",
        "NORAD_CAT_ID": 39358,
        "ELEMENT_SET_NO": 999,
        "REV_AT_EPOCH": 67749,
        "BSTAR": 8.3949e-05,
        "MEAN_MOTION_DOT": 8.33e-06,
        "MEAN_MOTION_DDOT": 0
    },
    {
        "OBJECT_NAME": "SL-4 R/B",
        "OBJECT_ID": "2014-021B",
        "EPOCH": "2026-04-18T03:37:28.845120",
        "MEAN_MOTION": 15.40511518,
        "ECCENTRICITY": 0.00930822,
        "INCLINATION": 51.6049,
        "RA_OF_ASC_NODE": 144.5636,
        "ARG_OF_PERICENTER": 247.2774,
        "MEAN_ANOMALY": 111.8351,
        "EPHEMERIS_TYPE": 0,
        "CLASSIFICATION_TYPE": "U",
        "NORAD_CAT_ID": 39679,
        "ELEMENT_SET_NO": 999,
        "REV_AT_EPOCH": 66235,
        "BSTAR": 0.00020013904,
        "MEAN_MOTION_DOT": 9.171e-05,
        "MEAN_MOTION_DDOT": 0
    },
    {
        "OBJECT_NAME": "ALOS-2",
        "OBJECT_ID": "2014-029A",
        "EPOCH": "2026-04-18T13:18:38.778336",
        "MEAN_MOTION": 14.79454374,
        "ECCENTRICITY": 0.0001772,
        "INCLINATION": 97.9203,
        "RA_OF_ASC_NODE": 206.5725,
        "ARG_OF_PERICENTER": 90.6594,
        "MEAN_ANOMALY": 269.482,
        "EPHEMERIS_TYPE": 0,
        "CLASSIFICATION_TYPE": "U",
        "NORAD_CAT_ID": 39766,
        "ELEMENT_SET_NO": 999,
        "REV_AT_EPOCH": 64276,
        "BSTAR": 1.616e-05,
        "MEAN_MOTION_DOT": 6.9e-07,
        "MEAN_MOTION_DDOT": 0
    },
    {
        "OBJECT_NAME": "YAOGAN-29",
        "OBJECT_ID": "2015-069A",
        "EPOCH": "2026-04-18T20:56:10.450752",
        "MEAN_MOTION": 14.83033386,
        "ECCENTRICITY": 0.0001268,
        "INCLINATION": 98.008,
        "RA_OF_ASC_NODE": 137.3987,
        "ARG_OF_PERICENTER": 152.1006,
        "MEAN_ANOMALY": 208.0275,
        "EPHEMERIS_TYPE": 0,
        "CLASSIFICATION_TYPE": "U",
        "NORAD_CAT_ID": 41038,
        "ELEMENT_SET_NO": 999,
        "REV_AT_EPOCH": 56183,
        "BSTAR": -5.759e-05,
        "MEAN_MOTION_DOT": -5.22e-06,
        "MEAN_MOTION_DDOT": 0
    },
    {
        "OBJECT_NAME": "ASTRO-H (HITOMI)",
        "OBJECT_ID": "2016-012A",
        "EPOCH": "2026-04-18T07:00:59.218848",
        "MEAN_MOTION": 15.10239108,
        "ECCENTRICITY": 0.0009506,
        "INCLINATION": 30.9983,
        "RA_OF_ASC_NODE": 100.9283,
        "ARG_OF_PERICENTER": 9.4448,
        "MEAN_ANOMALY": 350.6367,
        "EPHEMERIS_TYPE": 0,
        "CLASSIFICATION_TYPE": "U",
        "NORAD_CAT_ID": 41337,
        "ELEMENT_SET_NO": 999,
        "REV_AT_EPOCH": 55822,
        "BSTAR": 0.00011453,
        "MEAN_MOTION_DOT": 2.016e-05,
        "MEAN_MOTION_DDOT": 0
    },
    {
        "OBJECT_NAME": "HXMT (HUIYAN)",
        "OBJECT_ID": "2017-034A",
        "EPOCH": "2026-04-18T14:14:53.451744",
        "MEAN_MOTION": 15.17946002,
        "ECCENTRICITY": 0.0030599,
        "INCLINATION": 43.0129,
        "RA_OF_ASC_NODE": 154.7331,
        "ARG_OF_PERICENTER": 128.6907,
        "MEAN_ANOMALY": 231.6684,
        "EPHEMERIS_TYPE": 0,
        "CLASSIFICATION_TYPE": "U",
        "NORAD_CAT_ID": 42758,
        "ELEMENT_SET_NO": 999,
        "REV_AT_EPOCH": 48860,
        "BSTAR": 0.0001603,
        "MEAN_MOTION_DOT": 3.108e-05,
        "MEAN_MOTION_DDOT": 0
    },
    {
        "OBJECT_NAME": "SAOCOM 1A",
        "OBJECT_ID": "2018-076A",
        "EPOCH": "2026-04-18T19:03:44.294688",
        "MEAN_MOTION": 14.82147493,
        "ECCENTRICITY": 0.0001452,
        "INCLINATION": 97.8893,
        "RA_OF_ASC_NODE": 296.4009,
        "ARG_OF_PERICENTER": 89.4973,
        "MEAN_ANOMALY": 270.6406,
        "EPHEMERIS_TYPE": 0,
        "CLASSIFICATION_TYPE": "U",
        "NORAD_CAT_ID": 43641,
        "ELEMENT_SET_NO": 999,
        "REV_AT_EPOCH": 40730,
        "BSTAR": 2.0825e-05,
        "MEAN_MOTION_DOT": 1.14e-06,
        "MEAN_MOTION_DDOT": 0
    },
    {
        "OBJECT_NAME": "H-2A R/B",
        "OBJECT_ID": "2018-084L",
        "EPOCH": "2026-04-18T21:28:41.439648",
        "MEAN_MOTION": 15.42978126,
        "ECCENTRICITY": 0.0023114,
        "INCLINATION": 98.8661,
        "RA_OF_ASC_NODE": 334.9216,
        "ARG_OF_PERICENTER": 241.7601,
        "MEAN_ANOMALY": 118.1308,
        "EPHEMERIS_TYPE": 0,
        "CLASSIFICATION_TYPE": "U",
        "NORAD_CAT_ID": 43682,
        "ELEMENT_SET_NO": 999,
        "REV_AT_EPOCH": 41197,
        "BSTAR": 0.00038697,
        "MEAN_MOTION_DOT": 0.00017109,
        "MEAN_MOTION_DDOT": 0
    },
    {
        "OBJECT_NAME": "SAOCOM 1B",
        "OBJECT_ID": "2020-059A",
        "EPOCH": "2026-04-18T19:48:42.132960",
        "MEAN_MOTION": 14.82163796,
        "ECCENTRICITY": 0.0001508,
        "INCLINATION": 97.8885,
        "RA_OF_ASC_NODE": 295.5263,
        "ARG_OF_PERICENTER": 83.9106,
        "MEAN_ANOMALY": 276.2279,
        "EPHEMERIS_TYPE": 0,
        "CLASSIFICATION_TYPE": "U",
        "NORAD_CAT_ID": 46265,
        "ELEMENT_SET_NO": 999,
        "REV_AT_EPOCH": 30469,
        "BSTAR": 0.00011257,
        "MEAN_MOTION_DOT": 8.44e-06,
        "MEAN_MOTION_DDOT": 0
    },
    {
        "OBJECT_NAME": "CSS (TIANHE)",
        "OBJECT_ID": "2021-035A",
        "EPOCH": "2026-04-18T21:02:36.173184",
        "MEAN_MOTION": 15.62534158,
        "ECCENTRICITY": 0.0006264,
        "INCLINATION": 41.4679,
        "RA_OF_ASC_NODE": 323.2759,
        "ARG_OF_PERICENTER": 234.6842,
        "MEAN_ANOMALY": 125.3412,
        "EPHEMERIS_TYPE": 0,
        "CLASSIFICATION_TYPE": "U",
        "NORAD_CAT_ID": 48274,
        "ELEMENT_SET_NO": 999,
        "REV_AT_EPOCH": 28389,
        "BSTAR": 0.00025386,
        "MEAN_MOTION_DOT": 0.00023028,
        "MEAN_MOTION_DDOT": 0
    },
    {
        "OBJECT_NAME": "COSMOS 2550",
        "OBJECT_ID": "2021-056A",
        "EPOCH": "2026-04-18T21:08:22.414272",
        "MEAN_MOTION": 15.33832158,
        "ECCENTRICITY": 0.0008355,
        "INCLINATION": 67.1425,
        "RA_OF_ASC_NODE": 279.3054,
        "ARG_OF_PERICENTER": 269.6238,
        "MEAN_ANOMALY": 90.3959,
        "EPHEMERIS_TYPE": 0,
        "CLASSIFICATION_TYPE": "U",
        "NORAD_CAT_ID": 48865,
        "ELEMENT_SET_NO": 999,
        "REV_AT_EPOCH": 26962,
        "BSTAR": -1.5812e-07,
        "MEAN_MOTION_DOT": -1.97e-06,
        "MEAN_MOTION_DDOT": 0
    },
    {
        "OBJECT_NAME": "CZ-2C R/B",
        "OBJECT_ID": "2022-058K",
        "EPOCH": "2026-04-18T20:21:22.543776",
        "MEAN_MOTION": 15.57195932,
        "ECCENTRICITY": 0.0039884,
        "INCLINATION": 50.1859,
        "RA_OF_ASC_NODE": 111.2317,
        "ARG_OF_PERICENTER": 12.6647,
        "MEAN_ANOMALY": 347.5317,
        "EPHEMERIS_TYPE": 0,
        "CLASSIFICATION_TYPE": "U",
        "NORAD_CAT_ID": 52794,
        "ELEMENT_SET_NO": 999,
        "REV_AT_EPOCH": 21638,
        "BSTAR": 0.00050689,
        "MEAN_MOTION_DOT": 0.00038696,
        "MEAN_MOTION_DDOT": 0
    },
    {
        "OBJECT_NAME": "CZ-2C R/B",
        "OBJECT_ID": "2022-132E",
        "EPOCH": "2026-04-18T17:59:40.665408",
        "MEAN_MOTION": 15.6557348,
        "ECCENTRICITY": 0.0013199,
        "INCLINATION": 97.2942,
        "RA_OF_ASC_NODE": 113.4,
        "ARG_OF_PERICENTER": 304.3915,
        "MEAN_ANOMALY": 55.6096,
        "EPHEMERIS_TYPE": 0,
        "CLASSIFICATION_TYPE": "U",
        "NORAD_CAT_ID": 54039,
        "ELEMENT_SET_NO": 999,
        "REV_AT_EPOCH": 19663,
        "BSTAR": 0.00046517,
        "MEAN_MOTION_DOT": 0.00046929,
        "MEAN_MOTION_DDOT": 0
    }
]