SHIJIAN-16 (SJ-16)      
1 39358U 13057A   26108.85041331  .00000833  00000+0  83949-4 0  9996
2 39358  74.9697 109.0516 0015875   9.1940 350.9535 14.92463598677497
SL-4 R/B                
1 39679U 14021B   26108.15102830  .00009171  00000+0  20014-3 0  9996
2 39679  51.6049 144.5636 0093082 247.2774 111.8351 15.40511518662358
ALOS-2                  
1 39766U 14029A   26108.55461549  .00000069  00000+0  16160-4 0  9995
2 39766  97.9203 206.5725 0001772  90.6594 269.4820 14.79454374642764
YAOGAN-29               
1 41038U 15069A   26108.87234318 -.00000522  00000+0 -57590-4 0  9990
2 41038  98.0080 137.3987 0001268 152.1006 208.0275 14.83033386561839
ASTRO-H (HITOMI)        
1 41337U 16012A   26108.29235207  .00002016  00000+0  11453-3 0  9990
2 41337  30.9983 100.9283 0009506   9.4448 350.6367 15.10239108558226
HXMT (HUIYAN)           
1 42758U 17034A   26108.59367421  .00003108  00000+0  16030-3 0  9999
2 42758  43.0129 154.7331 0030599 128.6907 231.6684 15.17946002488601
SAOCOM 1A               
1 43641U 18076A   26108.79426267  .00000114  00000+0  20825-4 0  9996
2 43641  97.8893 296.4009 0001452  89.4973 270.6406 14.82147493407308
H-2A R/B                
1 43682U 18084L   26108.89492407  .00017109  00000+0  38697-3 0  9997
2 43682  98.8661 334.9216 0023114 241.7601 118.1308 15.42978126411972
SAOCOM 1B               
1 46265U 20059A   26108.82548765  .00000844  00000+0  11257-3 0  9995
2 46265  97.8885 295.5263 0001508  83.9106 276.2279 14.82163796304697
CSS (TIANHE)            
1 48274U 21035A   26108.87680756  .00023028  00000+0  25386-3 0  9991
2 48274  41.4679 323.2759 0006264 234.6842 125.3412 15.62534158283894
COSMOS 2550             
1 48865U 21056A   26108.88081498 -.00000197  00000+0 -15812-6 0  9999
2 48865  67.1425 279.3054 0008355 269.6238  90.3959 15.33832158269624
CZ-2C R/B               
1 52794U 22058K   26108.84817759  .00038696  00000+0  50689-3 0  9992
2 52794  50.1859 111.2317 0039884  12.6647 347.5317 15.57195932216388
CZ-2C R/B               
1 54039U 22132E   26108.74977622  .00046929  00000+0  46517-3 0  9997
2 54039  97.2942 113.4000 0013199 304.3915  55.6096 15.65573480196633
